NORAD_CAT_ID,OBJECT_NAME,OBJECT_TYPE,EPOCH,MEAN_MOTION,ECCENTRICITY,INCLINATION,RA_OF_ASC_NODE,ARG_OF_PERICENTER,MEAN_ANOMALY,BSTAR,MEAN_MOTION_DOT,MEAN_MOTION_DDOT,TLE_LINE0,TLE_LINE1,TLE_LINE2,SEMIMAJOR_AXIS,PERIOD,APOGEE,PERIGEE,DECAYED
54799.0,STARLINK-5421,PAYLOAD,2024-07-02 12:54:10,15.08838819,8.95e-05,53.2149,260.6094,87.2007,272.9088,7.1808e-05,8.55e-06,0.0,0 STARLINK-5421,1 54799U 22175AT  24184.53762438  .00000855  00000-0  71808-4 0  9994,2 54799  53.2149 260.6094 0000895  87.2007 272.9088 15.08838819 87409,6917.884,95.438,540.368,539.13,0.0
54799.0,STARLINK-5421,PAYLOAD,2024-07-03 11:09:34,15.08843043,9.97e-05,53.2148,256.4471,61.2216,298.8876,0.00013602,1.878e-05,0.0,0 STARLINK-5421,1 54799U 22175AT  24185.46498366  .00001878  00000-0  13602-3 0  9996,2 54799  53.2148 256.4471 0000997  61.2216 298.8876 15.08843043 85389,6917.871,95.437,540.426,539.046,0.0
54799.0,STARLINK-5421,PAYLOAD,2024-07-03 22:17:16,15.08851797,0.0001038,53.2158,254.3657,65.6226,294.4875,0.00012905,1.767e-05,0.0,0 STARLINK-5421,1 54799U 22175AT  24185.92865766  .00001767  00000-0  12905-3 0  9991,2 54799  53.2158 254.3657 0001038  65.6226 294.4875 15.08851797 87613,6917.844,95.437,540.427,538.991,0.0
54799.0,STARLINK-5421,PAYLOAD,2024-07-04 11:00:21,15.08837357,0.0001157,53.2163,251.9874,80.5453,279.567,3.4129e-05,2.55e-06,0.0,0 STARLINK-5421,1 54799U 22175AT  24186.45858600  .00000255  00000-0  34129-4 0  9993,2 54799  53.2163 251.9874 0001157  80.5453 279.5670 15.08837357 85535,6917.888,95.438,540.554,538.953,0.0
54799.0,STARLINK-5421,PAYLOAD,2024-07-04 14:11:07,15.08840111,0.0001119,53.2157,251.392,79.3721,280.7397,7.0958e-05,8.42e-06,0.0,0 STARLINK-5421,1 54799U 22175AT  24186.59106421  .00000842  00000-0  70958-4 0  9997,2 54799  53.2157 251.3920 0001119  79.3721 280.7397 15.08840111 87710,6917.88,95.438,540.519,538.971,0.0
54799.0,STARLINK-5421,PAYLOAD,2024-07-05 10:51:08,15.08841367,0.0001064,53.2173,247.5267,84.0082,276.1032,7.0039e-05,8.27e-06,0.0,0 STARLINK-5421,1 54799U 22175AT  24187.45218259  .00000827  00000-0  70039-4 0  9999,2 54799  53.2173 247.5267 0001064  84.0082 276.1032 15.08841367 87844,6917.876,95.437,540.477,539.005,0.0
54799.0,STARLINK-5421,PAYLOAD,2024-07-06 10:41:56,15.08834679,0.0001048,53.2159,243.0647,78.4431,281.6678,4.3576e-05,4.06e-06,0.0,0 STARLINK-5421,1 54799U 22175AT  24188.44578831  .00000406  00000-0  43576-4 0  9993,2 54799  53.2159 243.0647 0001048  78.4431 281.6678 15.08834679 85830,6917.897,95.438,540.487,539.037,0.0
54799.0,STARLINK-5421,PAYLOAD,2024-07-06 20:14:14,15.0883774,0.0001063,53.2162,241.2806,78.4589,281.6523,4.9409e-05,4.99e-06,0.0,0 STARLINK-5421,1 54799U 22175AT  24188.84322635  .00000499  00000-0  49409-4 0  9999,2 54799  53.2162 241.2806 0001063  78.4589 281.6523 15.08837740 88050,6917.887,95.438,540.488,539.017,0.0
54799.0,STARLINK-5421,PAYLOAD,2024-07-07 10:32:43,15.08837083,0.0001209,53.2169,238.6066,87.0742,273.0389,4.8712e-05,4.87e-06,0.0,0 STARLINK-5421,1 54799U 22175AT  24189.43938810  .00000487  00000-0  48712-4 0  9996,2 54799  53.2169 238.6066 0001209  87.0742 273.0389 15.08837083 88149,6917.889,95.438,540.591,538.918,0.0
54799.0,STARLINK-5421,PAYLOAD,2024-07-08 11:58:53,15.08838257,0.000122,53.2168,233.8496,91.5964,268.5168,0.00011409,1.528e-05,0.0,0 STARLINK-5421,1 54799U 22175AT  24190.49922770  .00001528  00000-0  11409-3 0  9991,2 54799  53.2168 233.8496 0001220  91.5964 268.5168 15.08838257 86147,6917.886,95.438,540.595,538.907,0.0
54799.0,STARLINK-5421,PAYLOAD,2024-07-08 19:55:48,15.08846265,0.0001243,53.2168,232.3615,82.5466,277.5667,0.00014724,2.057e-05,0.0,0 STARLINK-5421,1 54799U 22175AT  24190.83042205  .00002057  00000-0  14724-3 0  9996,2 54799  53.2168 232.3615 0001243  82.5466 277.5667 15.08846265 86193,6917.861,95.437,540.586,538.866,0.0
54799.0,STARLINK-5421,PAYLOAD,2024-07-09 11:49:40,15.08840455,0.0001361,53.2169,229.3872,76.3764,283.7379,8.5795e-05,1.078e-05,0.0,0 STARLINK-5421,1 54799U 22175AT  24191.49282827  .00001078  00000-0  85795-4 0  9994,2 54799  53.2169 229.3872 0001361  76.3764 283.7379 15.08840455 86293,6917.879,95.438,540.686,538.802,0.0
54799.0,STARLINK-5421,PAYLOAD,2024-07-10 10:05:04,15.08839925,0.0001147,53.2155,225.2258,83.928,276.1843,2.689e-05,1.4e-06,0.0,0 STARLINK-5421,1 54799U 22175AT  24192.42018920  .00000140  00000-0  26890-4 0  9999,2 54799  53.2155 225.2258 0001147  83.9280 276.1843 15.08839925 88597,6917.881,95.438,540.539,538.952,0.0
54799.0,STARLINK-5421,PAYLOAD,2024-07-11 11:31:14,15.08844167,0.0001177,53.2155,220.4652,92.4833,267.6294,8.2611e-05,1.027e-05,0.0,0 STARLINK-5421,1 54799U 22175AT  24193.48002355  .00001027  00000-0  82611-4 0  9999,2 54799  53.2155 220.4652 0001177  92.4833 267.6294 15.08844167 88751,6917.868,95.437,540.547,538.918,0.0
54799.0,STARLINK-5421,PAYLOAD,2024-07-12 08:11:15,15.08837496,0.0001426,53.217,216.5994,103.4664,256.6487,4.8844e-05,4.89e-06,0.0,0 STARLINK-5421,1 54799U 22175AT  24194.34114906  .00000489  00000-0  48844-4 0  9992,2 54799  53.2170 216.5994 0001426 103.4664 256.6487 15.08837496 86729,6917.888,95.438,540.74,538.767,0.0
54799.0,STARLINK-5421,PAYLOAD,2024-07-13 11:12:48,15.08840568,0.0001369,53.2167,211.5456,94.6844,265.4304,1.2925e-05,-8.2e-07,0.0,0 STARLINK-5421,1 54799U 22175AT  24195.46722976 -.00000082  00000-0  12925-4 0  9999,2 54799  53.2167 211.5456 0001369  94.6844 265.4304 15.08840568 86898,6917.879,95.438,540.691,538.797,0.0
54799.0,STARLINK-5421,PAYLOAD,2024-07-13 17:34:21,15.08840138,0.0001363,53.2167,210.3561,94.3597,265.7551,9.2828e-06,-1.4e-06,0.0,0 STARLINK-5421,1 54799U 22175AT  24195.73219006 -.00000140  00000-0  92828-5 0  9990,2 54799  53.2167 210.3561 0001363  94.3597 265.7551 15.08840138 89093,6917.88,95.438,540.688,538.802,0.0
54799.0,STARLINK-5421,PAYLOAD,2024-07-14 07:52:49,15.08838955,0.0001299,53.2161,207.6796,93.1211,266.9929,8.0078e-05,9.87e-06,0.0,0 STARLINK-5421,1 54799U 22175AT  24196.32834989  .00000987  00000-0  80078-4 0  9990,2 54799  53.2161 207.6796 0001299  93.1211 266.9929 15.08838955 89180,6917.884,95.438,540.647,538.85,0.0
54799.0,STARLINK-5421,PAYLOAD,2024-07-14 17:25:08,15.08841582,0.0001304,53.2162,205.8955,93.2071,266.9071,9.6798e-05,1.253e-05,0.0,0 STARLINK-5421,1 54799U 22175AT  24196.72578803  .00001253  00000-0  96798-4 0  9997,2 54799  53.2162 205.8955 0001304  93.2071 266.9071 15.08841582 87085,6917.876,95.437,540.643,538.838,0.0
54799.0,STARLINK-5421,PAYLOAD,2024-07-15 04:32:50,15.08834484,0.0001387,53.2169,203.814,93.7575,266.3576,3.237e-05,2.27e-06,0.0,0 STARLINK-5421,1 54799U 22175AT  24197.18947558  .00000227  00000-0  32370-4 0  9991,2 54799  53.2169 203.8140 0001387  93.7575 266.3576 15.08834484 87156,6917.897,95.438,540.722,538.803,0.0
54799.0,STARLINK-5421,PAYLOAD,2024-07-15 09:19:00,15.08835471,0.0001399,53.2169,202.9219,93.0383,267.0769,3.6809e-05,2.98e-06,0.0,0 STARLINK-5421,1 54799U 22175AT  24197.38819527  .00000298  00000-0  36809-4 0  9996,2 54799  53.2169 202.9219 0001399  93.0383 267.0769 15.08835471 89348,6917.894,95.438,540.727,538.791,0.0
54799.0,STARLINK-5421,PAYLOAD,2024-07-15 17:15:55,15.08838898,0.000141,53.2171,201.4351,92.7778,267.3375,6.2517e-05,7.07e-06,0.0,0 STARLINK-5421,1 54799U 22175AT  24197.71939323  .00000707  00000-0  62517-4 0  9990,2 54799  53.2171 201.4351 0001410  92.7778 267.3375 15.08838898 89397,6917.884,95.438,540.724,538.773,0.0
54799.0,STARLINK-5421,PAYLOAD,2024-07-16 09:09:46,15.08840903,0.0001421,53.2169,198.4613,91.1617,268.9538,5.5313e-05,5.92e-06,0.0,0 STARLINK-5421,1 54799U 22175AT  24198.38179234  .00000592  00000-0  55313-4 0  9999,2 54799  53.2169 198.4613 0001421  91.1617 268.9538 15.08840903 87337,6917.878,95.437,540.726,538.76,0.0
54799.0,STARLINK-5421,PAYLOAD,2024-07-17 07:25:10,15.08839524,0.000133,53.2159,194.2972,86.5392,273.5752,6.1718e-05,6.94e-06,0.0,0 STARLINK-5421,1 54799U 22175AT  24199.30915375  .00000694  00000-0  61718-4 0  9995,2 54799  53.2159 194.2972 0001330  86.5392 273.5752 15.08839524 89637,6917.882,95.438,540.667,538.827,0.0
54799.0,STARLINK-5421,PAYLOAD,2024-07-18 05:40:34,15.08839323,0.0001309,53.2154,190.1339,89.7916,270.3226,6.8346e-05,8e-06,0.0,0 STARLINK-5421,1 54799U 22175AT  24200.23651545  .00000800  00000-0  68346-4 0  9999,2 54799  53.2154 190.1339 0001309  89.7916 270.3226 15.08839323 87611,6917.882,95.438,540.653,538.842,0.0
54799.0,STARLINK-5421,PAYLOAD,2024-07-18 16:48:16,15.0884604,0.0001326,53.2159,188.0517,92.0515,268.0629,9.6305e-05,1.245e-05,0.0,0 STARLINK-5421,1 54799U 22175AT  24200.70018996  .00001245  00000-0  96305-4 0  9998,2 54799  53.2159 188.0517 0001326  92.0515 268.0629 15.08846040 89843,6917.862,95.437,540.644,538.81,0.0
54799.0,STARLINK-5421,PAYLOAD,2024-07-19 08:42:07,15.08843464,0.0001522,53.2169,185.0776,100.0993,260.0171,0.00010319,1.355e-05,0.0,0 STARLINK-5421,1 54799U 22175AT  24201.36259128  .00001355  00000-0  10319-3 0  9997,2 54799  53.2169 185.0776 0001522 100.0993 260.0171 15.08843464 87788,6917.87,95.437,540.788,538.682,0.0
54799.0,STARLINK-5421,PAYLOAD,2024-07-20 03:46:45,15.08839758,0.0001503,53.2169,181.5087,101.2917,258.8244,3.5339e-05,2.74e-06,0.0,0 STARLINK-5421,1 54799U 22175AT  24202.15747427  .00000274  00000-0  35339-4 0  9998,2 54799  53.2169 181.5087 0001503 101.2917 258.8244 15.08839758 87903,6917.881,95.438,540.786,538.706,0.0
54799.0,STARLINK-5421,PAYLOAD,2024-07-20 08:32:55,15.08838641,0.0001497,53.2169,180.6169,100.5441,259.572,2.4531e-05,1.02e-06,0.0,0 STARLINK-5421,1 54799U 22175AT  24202.35619528  .00000102  00000-0  24531-4 0  9992,2 54799  53.2169 180.6169 0001497 100.5441 259.5720 15.08838641 90091,6917.885,95.438,540.785,538.714,0.0
54799.0,STARLINK-5421,PAYLOAD,2024-07-21 05:12:56,15.08838998,0.0001379,53.2167,176.7518,91.9969,268.1181,5.4476e-05,5.79e-06,0.0,0 STARLINK-5421,1 54799U 22175AT  24203.21731530  .00000579  00000-0  54476-4 0  9995,2 54799  53.2167 176.7518 0001379  91.9969 268.1181 15.08838998 88066,6917.883,95.438,540.702,538.794,0.0
